{
  "type": "FeatureCollection",
  "features": [
    {
      "type": "Feature",
      "properties": {
        "name": "Visakhapatnam",
        "constituency": "Visakhapatnam",
        "state": "Andhra Pradesh",
        "type": "Lok Sabha"
      },
      "geometry": {
        "type": "Polygon",
        "coordinates": [
          [
            [83.048, 17.815],
            [83.125, 17.835],
            [83.210, 17.828],
            [83.295, 17.805],
            [83.365, 17.765],
            [83.382, 17.710],
            [83.375, 17.655],
            [83.340, 17.600],
            [83.285, 17.545],
            [83.210, 17.525],
            [83.135, 17.535],
            [83.070, 17.565],
            [83.035, 17.610],
            [83.025, 17.665],
            [83.035, 17.725],
            [83.048, 17.815]
          ]
        ]
      }
    }
  ]
}
